OBJECT_NAME,OBJECT_ID,EPOCH,MEAN_MOTION,ECCENTRICITY,INCLINATION,RA_OF_ASC_NODE,ARG_OF_PERICENTER,MEAN_ANOMALY,EPHEMERIS_TYPE,CLASSIFICATION_TYPE,NORAD_CAT_ID,ELEMENT_SET_NO,REV_AT_EPOCH,BSTAR,MEAN_MOTION_DOT,MEAN_MOTION_DDOT
SL-16 R/B,1996-051B,2026-07-02T18:04:43.913856,14.12451686,.0016798,70.7654,291.7060,314.6953,45.2798,0,U,24298,999,53789,.12062E-3,.174E-5,0
ORBVIEW 2 (SEASTAR),1997-037A,2026-07-02T16:51:15.067008,14.35561746,.000333,98.8702,351.1522,85.5489,274.6076,0,U,24883,999,52497,.11544E-3,.286E-5,0
SL-16 R/B,1998-043G,2026-07-02T14:06:57.209760,14.26071240,.0010665,98.8371,137.8804,45.9843,314.2213,0,U,25400,999,45536,.51375E-4,.77E-6,0
SL-16 R/B,1998-045B,2026-07-02T16:54:21.495744,14.16207018,.000876,71.0128,299.6957,222.3711,137.6737,0,U,25407,999,44338,.11006E-3,.17E-5,0
ISS (ZARYA),1998-067A,2026-07-01T12:11:46.289760,15.49503254,.00042241,51.6311,229.1989,255.0896,104.9625,0,U,25544,999,57397,.11826728E-3,.6185E-4,0
CZ-4B R/B,1999-025C,2026-07-02T12:53:53.060352,14.18286103,.0037367,98.6476,224.9891,16.2605,146.9355,0,U,25732,999,40444,.56533E-4,.74E-6,0
OKEAN-O,1999-039A,2026-07-02T14:55:58.698624,14.80485585,.0001167,97.9308,242.2424,71.2630,288.8709,0,U,25860,999,45139,.93861E-4,.666E-5,0
SL-16 R/B,1999-039B,2026-07-02T15:06:41.353056,14.81860747,.0013542,97.9830,242.4483,241.7350,118.2496,0,U,25861,999,45388,.82022E-4,.595E-5,0
DELTA 2 R/B,1999-041E,2026-07-02T17:56:09.960000,14.12048354,.0501101,51.7614,201.6343,328.0003,29.1382,0,U,25876,999,37928,.25558E-3,.1353E-4,0
HELIOS 1B,1999-064A,2026-07-02T17:05:18.608352,14.88048674,.000238,98.1599,89.3003,69.9690,290.1781,0,U,25977,999,70236,.1834E-3,.1627E-4,0
TERRA,1999-068A,2026-07-02T20:20:06.524736,14.61115956,.0002763,97.9447,232.7721,147.9475,327.8787,0,U,25994,999,41189,.10519E-3,.473E-5,0
SL-16 R/B,2000-006B,2026-07-02T19:41:12.095232,14.15841070,.0016572,71.0011,215.7543,358.1700,1.9359,0,U,26070,999,36485,.29515E-4,.1E-6,0
TITAN 4B R/B,2000-047B,2026-07-02T19:44:34.840608,15.10282987,.0045894,67.9887,76.5615,271.3325,88.2567,0,U,26474,999,41029,.19602E-3,.3158E-4,0
ENVISAT,2002-009A,2026-07-02T21:14:06.319104,14.39068505,.0001384,98.3840,134.8536,85.5164,291.3371,0,U,27386,999,27574,.48877E-4,.108E-5,0
IDEFIX & ARIANE 42P R/B,2002-021B,2026-07-02T18:59:01.077216,14.31089266,.0011124,98.5942,121.1052,203.7093,156.3578,0,U,27422,999,26048,.11192E-3,.251E-5,0
AQUA,2002-022A,2026-07-02T20:32:41.983008,14.62182391,.0000691,98.4285,153.4526,82.2716,307.8036,0,U,27424,999,28556,.1915E-3,.914E-5,0
CZ-4B R/B,2002-024C,2026-07-02T14:36:52.656192,14.14566803,.0051023,98.8692,236.3284,57.3217,103.7872,0,U,27432,999,24548,.49256E-4,.52E-6,0
MIDORI II (ADEOS-II),2002-056A,2026-07-02T19:38:27.801312,14.29358031,.000192,98.7886,143.2116,55.6482,304.4881,0,U,27597,999,22674,.13114E-3,.289E-5,0
H-2A R/B,2002-056E,2026-07-02T20:26:15.068256,14.33829076,.007008,98.3320,139.9557,177.5186,237.5353,0,U,27601,999,23061,.10624E-3,.262E-5,0
CZ-4B R/B,2003-049C,2026-07-02T20:10:26.717664,14.55110204,.004704,98.6901,183.3106,239.6292,120.0249,0,U,28059,999,20334,.9221E-4,.352E-5,0
CZ-2C R/B,2004-012C,2026-07-02T19:09:46.656288,15.82291172,.0010899,97.7056,261.3152,228.3172,131.7164,0,U,28222,999,22236,.64062E-3,.133736E-2,0
SL-16 R/B,2004-021B,2026-07-02T17:13:50.293344,14.14610640,.0006639,71.0014,351.0938,235.9495,124.0997,0,U,28353,999,13910,.17481E-3,.288E-5,0
CZ-4B R/B,2004-035C,2026-07-02T19:42:59.105088,15.30846437,.0028836,97.3356,216.7205,279.2841,80.5140,0,U,28415,999,19751,.30597E-3,.916E-4,0
CZ-2C R/B,2004-046B,2026-07-02T18:10:48.951264,14.27030203,.0139396,98.1931,91.5644,174.0576,186.2300,0,U,28480,999,12491,.60418E-4,.122E-5,0
ARIANE 5 R/B,2004-049H,2026-07-02T11:43:01.051104,14.85467300,.0083367,98.2731,356.3331,339.8866,19.9069,0,U,28499,999,16283,.73602E-4,.609E-5,0
CZ-2D R/B,2005-024B,2026-07-02T12:17:56.465376,15.71309237,.0000436,97.3468,203.7241,327.5456,32.5780,0,U,28738,999,15774,.48297E-3,.61403E-3,0
ALOS (DAICHI),2006-002A,2026-07-02T21:09:30.963168,14.70082911,.0000881,98.1329,139.4007,64.6265,295.5032,0,U,28931,999,9040,.21821E-3,.1261E-4,0
H-2A R/B,2006-002B,2026-07-02T09:52:55.023744,15.18272841,.0050028,98.2580,340.6205,209.6253,150.2144,0,U,28932,999,11183,.42834E-3,.899E-4,0
RESURS-DK 1,2006-021A,2026-07-02T18:25:23.130048,15.13281648,.00067,69.9340,299.2211,284.6329,75.4094,0,U,29228,999,10493,.15058E-3,.2578E-4,0
CZ-4B R/B,2006-046C,2026-07-02T13:08:25.160352,15.17896573,.0031427,97.5436,228.1071,226.7926,133.0682,0,U,29507,999,7746,.24527E-3,.4964E-4,0
CZ-2C R/B,2007-010B,2026-07-02T20:10:07.370112,14.20279629,.0058142,98.4112,291.4267,320.3520,39.3413,0,U,31114,999,99606,.68733E-4,.108E-5,0
